     2.100          NAVIGATION                              RINEX VERSION / TYPE
fic2rin                                 05/19/2016 00:04:56 PGM / RUN BY / DATE
                                                            END OF HEADER
31 16  5 18 13 59 44.0  .268391799182D-03 -.193267624127D-11  .000000000000D+00
     .140000000000D+02  .193750000000D+02  .473305429357D-08  .191267791346D+01
     .127218663692D-05  .817130424548D-02  .256672501564D-05  .515374583244D+04
     .309584000000D+06  .175088644028D-06  .113370803300D+01  .782310962677D-07
     .971171931518D+00  .333468750000D+03 -.397794491200D+00 -.833856162028D-08
    -.130005415247D-09  .100000000000D+01  .189700000000D+04  .000000000000D+00
     .240000000000D+01  .000000000000D+00 -.135041773319D-07  .140000000000D+02
     .302406000000D+06  .400000000000D+01
 1 16  5 18 14  0  0.0  .207740813494D-04  .125055521494D-11  .000000000000D+00
     .600000000000D+02 -.312500000000D-01  .465412243431D-08  .276212725465D+01
     .763684511185D-07  .544389488641D-02  .478327274323D-05  .515363964272D+04
     .309600000000D+06 -.316649675369D-07 -.203462686110D+01 -.819563865662D-07
     .964039747988D+00  .289468750000D+03  .457543853052D+00 -.814962517889D-08
     .192508018732D-09  .100000000000D+01  .189700000000D+04  .000000000000D+00
     .240000000000D+01  .000000000000D+00  .512227416039D-08  .600000000000D+02
     .302406000000D+06  .400000000000D+01
 2 16  5 18 14  0  0.0  .591113232076D-03 -.227373675443D-11  .000000000000D+00
     .380000000000D+02  .550000000000D+01  .504985320380D-08  .311826807938D+01
     .268220901489D-06  .156637316104D-01  .435300171375D-05  .515377072144D+04
     .309600000000D+06  .633299350739D-07 -.207996857915D+01 -.163912773132D-06
     .942836416693D+00  .283562500000D+03 -.211858373552D+01 -.814676791701D-08
     .231081054025D-09  .100000000000D+01  .189700000000D+04  .000000000000D+00
     .240000000000D+01  .000000000000D+00 -.200234353542D-07  .380000000000D+02
     .302406000000D+06  .400000000000D+01
 3 16  5 18 14  0  0.0 -.588977709413D-04 -.375166564481D-11  .000000000000D+00
     .760000000000D+02 -.271562500000D+02  .453983195937D-08 -.222226216614D+01
    -.162050127983D-05  .239332439378D-03  .897794961929D-05  .515370313072D+04
     .309600000000D+06  .391155481339D-07 -.992831266082D+00  .521540641785D-07
     .959094667948D+00  .201093750000D+03 -.196980865633D+01 -.800319050787D-08
    -.289297764699D-09  .100000000000D+01  .189700000000D+04  .000000000000D+00
     .240000000000D+01  .000000000000D+00  .186264514923D-08  .760000000000D+02
     .302406000000D+06  .400000000000D+01
 4 16  5 18 14  0  0.0 -.256439670920D-03 -.568434188608D-12  .000000000000D+00
     .670000000000D+02 -.758125000000D+02  .528414867743D-08 -.342791185235D+00
    -.396557152271D-05  .849868624937D-02  .758282840252D-05  .515364510155D+04
     .309600000000D+06 -.372529029846D-07  .217161866034D+01  .104308128357D-06
     .983242622196D+00  .242062500000D+03  .885661303508D+00 -.799604735318D-08
    -.421088968617D-09  .100000000000D+01  .189700000000D+04  .000000000000D+00
     .340000000000D+01  .630000000000D+02 -.195577740669D-07  .670000000000D+02
     .302406000000D+06  .400000000000D+01
 5 16  5 18 14  0  0.0 -.119882170111D-03  .306954461848D-11  .000000000000D+00
     .133000000000D+03 -.401250000000D+02  .482770109313D-08 -.644392636283D+00
    -.189244747162D-05  .460571586154D-02  .930018723011D-05  .515379386520D+04
     .309600000000D+06  .819563865662D-07 -.100460758838D+01  .000000000000D+00
     .946160792698D+00  .188125000000D+03  .452487784344D+00 -.820105589261D-08
    -.337156901081D-09  .100000000000D+01  .189700000000D+04  .000000000000D+00
     .340000000000D+01  .000000000000D+00 -.107102096081D-07  .133000000000D+03
     .302406000000D+06  .400000000000D+01
 6 16  5 18 14  0  0.0  .191984232515D-03  .545696821064D-11  .000000000000D+00
     .920000000000D+02  .171875000000D+01  .468876673453D-08  .307477185149D+01
     .176951289177D-06  .436553382315D-03  .474415719509D-05  .515368530083D+04
     .309600000000D+06 -.633299350739D-07 -.204306148937D+01 -.298023223877D-07
     .963876569717D+00  .290218750000D+03 -.141467329976D+01 -.817105464294D-08
     .151792037033D-09  .100000000000D+01  .189700000000D+04  .000000000000D+00
     .240000000000D+01  .000000000000D+00  .419095158577D-08  .920000000000D+02
     .302406000000D+06  .400000000000D+01
 7 16  5 18 14  0  0.0  .453877262771D-03 -.227373675443D-11  .000000000000D+00
     .920000000000D+02  .200312500000D+02  .490020411317D-08  .203283653317D+01
     .104308128357D-05  .941656355280D-02  .274740159512D-05  .515364900208D+04
     .309600000000D+06 -.288709998131D-06  .112439193660D+01  .763684511185D-07
     .966357428620D+00  .333968750000D+03 -.267840797714D+01 -.844606609827D-08
    -.571452374714D-11  .100000000000D+01  .189700000000D+04  .000000000000D+00
     .240000000000D+01  .000000000000D+00 -.111758708954D-07  .920000000000D+02
     .302406000000D+06  .400000000000D+01
 8 16  5 18 14  0  0.0 -.355849042535D-04 -.136424205266D-11  .000000000000D+00
     .220000000000D+02  .104375000000D+02  .417517391275D-08 -.512294647654D+00
     .583007931709D-06  .176874536555D-02  .999681651592D-05  .515369265556D+04
     .309600000000D+06 -.156462192535D-06 -.309472372805D+01  .465661287308D-07
     .963505063133D+00  .190906250000D+03 -.111976606821D+01 -.781103964687D-08
     .316798910232D-09  .100000000000D+01  .189700000000D+04  .000000000000D+00
     .240000000000D+01  .000000000000D+00  .465661287308D-08  .220000000000D+02
     .302406000000D+06  .400000000000D+01
 9 16  5 18 14  0  0.0  .131443608552D-03  .727595761418D-11  .000000000000D+00
     .720000000000D+02  .929062500000D+02  .461912097636D-08 -.170503507513D+01
     .485777854919D-05  .580964144319D-03  .979192554951D-05  .515358717346D+04
     .309600000000D+06  .167638063431D-07  .464065805175D-01  .391155481339D-07
     .955568791070D+00  .193375000000D+03  .221781682038D+01 -.803569186168D-08
     .262510934634D-09  .100000000000D+01  .189700000000D+04  .000000000000D+00
     .240000000000D+01  .000000000000D+00  .139698386192D-08  .720000000000D+02
     .302406000000D+06  .400000000000D+01
10 16  5 18 14  0  0.0 -.252178870142D-04 -.898126018001D-11  .000000000000D+00
     .700000000000D+02 -.356562500000D+02  .452554565000D-08  .407878401613D+00
    -.184029340744D-05  .148798967712D-02  .916235148907D-05  .515368403435D+04
     .309600000000D+06 -.931322574615D-08 -.996848459608D+00  .596046447754D-07
     .959334342206D+00  .203968750000D+03 -.271487667134D+01 -.797354641593D-08
    -.281440294547D-09  .100000000000D+01  .189700000000D+04  .000000000000D+00
     .240000000000D+01  .000000000000D+00  .232830643654D-08  .700000000000D+02
     .302406000000D+06  .400000000000D+01
11 16  5 18 14  0  0.0 -.647336710244D-03 -.147792889038D-11  .000000000000D+00
     .540000000000D+02  .284375000000D+02  .600346435410D-08  .215077026808D+01
     .132247805595D-05  .163540100912D-01  .476092100143D-05  .515365905380D+04
     .309600000000D+06  .327825546265D-06 -.241104681131D+01 -.134110450745D-06
     .896539989518D+00  .249625000000D+03  .152342875832D+01 -.863178812005D-08
     .370372570361D-09  .100000000000D+01  .189700000000D+04  .000000000000D+00
     .340000000000D+01  .000000000000D+00 -.121071934700D-07  .540000000000D+02
     .302406000000D+06  .400000000000D+01
12 16  5 18 14  0  0.0  .380067154765D-03  .125055521494D-11  .000000000000D+00
     .890000000000D+02 -.909062500000D+02  .374444168531D-08  .148658681227D+01
    -.471062958241D-05  .614480569493D-02  .883080065250D-05  .515373591805D+04
     .309600000000D+06 -.111758708954D-06  .220084028073D+01  .242143869400D-07
     .990255614475D+00  .227187500000D+03  .744201534478D+00 -.775067998979D-08
    -.459662003910D-09  .100000000000D+01  .189700000000D+04  .000000000000D+00
     .340000000000D+01  .000000000000D+00 -.125728547573D-07  .890000000000D+02
     .302406000000D+06  .400000000000D+01
13 16  5 18 14  0  0.0 -.186692923307D-04 -.261479726760D-11  .000000000000D+00
     .890000000000D+02  .981250000000D+02  .427017787005D-08  .296210702232D+01
     .498816370964D-05  .439646758605D-02  .922195613384D-05  .515368615341D+04
     .309600000000D+06  .113621354103D-06  .166923960413D+00  .465661287308D-07
     .971966718818D+00  .205656250000D+03  .199920190043D+01 -.787461372356D-08
     .320370487574D-09  .100000000000D+01  .189700000000D+04  .000000000000D+00
     .340000000000D+01  .000000000000D+00 -.111758708954D-07  .890000000000D+02
     .302406000000D+06  .400000000000D+01
14 16  5 18 14  0  0.0 -.145020894706D-04 -.204636307899D-11  .000000000000D+00
     .800000000000D+01  .853125000000D+02  .440125475850D-08 -.159844464317D+01
     .460632145405D-05  .861474464182D-02  .867992639542D-05  .515401906586D+04
     .309600000000D+06  .117346644402D-06  .129957319621D+00  .108033418655D-06
     .964460184792D+00  .212656250000D+03 -.196454650928D+01 -.788104256277D-08
     .297155234851D-09  .100000000000D+01  .189700000000D+04  .000000000000D+00
     .240000000000D+01  .000000000000D+00 -.931322574615D-08  .800000000000D+01
     .302406000000D+06  .400000000000D+01
15 16  5 18 14  0  0.0 -.311419367790D-03 -.170530256582D-11  .000000000000D+00
     .290000000000D+02  .839375000000D+02  .511449875369D-08 -.224335381973D+01
     .404007732868D-05  .812668341678D-02  .100992619991D-04  .515359825897D+04
     .309600000000D+06  .102445483208D-06 -.589959312459D-02 -.176951289177D-06
     .931287189015D+00  .168718750000D+03  .481773499571D+00 -.822962851135D-08
     .295726603914D-09  .100000000000D+01  .189700000000D+04  .000000000000D+00
     .240000000000D+01  .000000000000D+00 -.107102096081D-07  .290000000000D+02
     .302406000000D+06  .400000000000D+01
